NORAD_CAT_ID,OBJECT_NAME,OBJECT_TYPE,EPOCH,MEAN_MOTION,ECCENTRICITY,INCLINATION,RA_OF_ASC_NODE,ARG_OF_PERICENTER,MEAN_ANOMALY,BSTAR,MEAN_MOTION_DOT,MEAN_MOTION_DDOT,TLE_LINE0,TLE_LINE1,TLE_LINE2,SEMIMAJOR_AXIS,PERIOD,APOGEE,PERIGEE,DECAYED
52098.0,STARLINK-3665,PAYLOAD,2022-06-15 14:00:01,15.08801444,0.0001302,53.2192,88.3307,71.256,299.4706,0.0022158,0.00035115,0.0,0 STARLINK-3665,1 52098U 22029L   22166.58334491  .00035115  00000-0  22158-2 0  9998,2 52098  53.2192  88.3307 0001302  71.2560 299.4706 15.08801444  1300,6917.998000000001,95.44,540.764,538.9630000000002,0.0
52098.0,STARLINK-3665,PAYLOAD,2022-06-15 22:00:00,15.08849009,0.0001392,53.2195,86.8352,70.9056,311.3856,-0.00089062,-0.00014438,0.0,0 STARLINK-3665,1 52098U 22029L   22166.91667824 -.00014438  00000-0 -89062-3 0  9999,2 52098  53.2195  86.8352 0001392  70.9056 311.3856 15.08849009  1300,6917.853,95.437,540.681,538.755,0.0
52098.0,STARLINK-3665,PAYLOAD,2022-06-16 02:00:01,15.08837431,0.0001474,53.2193,86.088,65.6855,142.4109,0.0010325999999999,0.00016183,0.0,0 STARLINK-3665,1 52098U 22029L   22167.08334491  .00016183  00000-0  10326-2 0  9992,2 52098  53.2193  86.0880 0001474  65.6855 142.4109 15.08837431  1305,6917.888000000001,95.438,540.773,538.734,0.0
52098.0,STARLINK-3665,PAYLOAD,2022-06-19 14:00:01,15.08831955,0.0001424,53.2193,70.3751,77.8679,71.9315,0.00064573,0.00010001,0.0,0 STARLINK-3665,1 52098U 22029L   22170.58334491  .00010001  00000-0  64573-3 0  9998,2 52098  53.2193  70.3751 0001424  77.8679  71.9315 15.08831955  1302,6917.905,95.438,540.755,538.785,0.0
52098.0,STARLINK-3665,PAYLOAD,2022-06-19 22:00:00,15.08837249,0.0001579,53.2194,68.88,75.6933,85.7003,-0.00095586,-0.00015467,0.0,0 STARLINK-3665,1 52098U 22029L   22170.91667824 -.00015467  00000-0 -95586-3 0  9995,2 52098  53.2194  68.8800 0001579  75.6933  85.7003 15.08837249  1309,6917.889,95.438,540.846,538.661,0.0
52098.0,STARLINK-3665,PAYLOAD,2022-06-20 14:00:01,15.08842453,0.0001589,53.2181,65.8873,80.6242,103.9394,-0.003248,-0.00051613,0.0,0 STARLINK-3665,1 52098U 22029L   22171.58334491 -.00051613  00000-0 -32480-2 0  9996,2 52098  53.2181  65.8873 0001589  80.6242 103.9394 15.08842453  1301,6917.873000000001,95.437,540.837,538.639,0.0
52098.0,STARLINK-3665,PAYLOAD,2022-06-20 22:00:00,15.08864967,0.0001545,53.219,64.3912,76.4335,119.729,-0.0035608,-0.00056552,0.0,0 STARLINK-3665,1 52098U 22029L   22171.91667824 -.00056552  00000-0 -35608-2 0  9994,2 52098  53.2190  64.3912 0001545  76.4335 119.7290 15.08864967 15676,6917.804,95.436,540.738,538.6,0.0
52098.0,STARLINK-3665,PAYLOAD,2022-06-21 14:00:01,15.08827053,0.000148,53.2187,61.397,81.0507,138.3111,0.0022245,0.0003528,0.0,0 STARLINK-3665,1 52098U 22029L   22172.58334491  .00035280  00000-0  22245-2 0  9995,2 52098  53.2187  61.3970 0001480  81.0507 138.3111 15.08827053 15779,6917.92,95.438,540.809,538.761,0.0
52098.0,STARLINK-3665,PAYLOAD,2022-06-21 22:00:00,15.08845538,0.0001615,53.2189,59.9023,76.0724,154.8885,-0.002042,-0.00032645,0.0,0 STARLINK-3665,1 52098U 22029L   22172.91667824 -.00032645  00000-0 -20420-2 0  9998,2 52098  53.2189  59.9023 0001615  76.0724 154.8885 15.08845538  1301,6917.863,95.437,540.846,538.611,0.0
52098.0,STARLINK-3665,PAYLOAD,2022-06-22 06:00:00,15.08845103,0.0001564,53.2188,58.40600000000001,72.6423,169.90099999999995,-0.0029998,-0.0004772,0.0,0 STARLINK-3665,1 52098U 22029L   22173.25001157 -.00047720  00000-0 -29998-2 0  9996,2 52098  53.2188  58.4060 0001564  72.6423 169.9010 15.08845103 15878,6917.865,95.437,540.812,538.648,0.0
52098.0,STARLINK-3665,PAYLOAD,2022-06-22 14:00:01,15.08793819,0.0001493,53.219,56.9081,80.637,173.4937,0.0031331,0.00049865,0.0,0 STARLINK-3665,1 52098U 22029L   22173.58334491  .00049865  00000-0  31331-2 0  9996,2 52098  53.2190  56.9081 0001493  80.6370 173.4937 15.08793819  1305,6918.022,95.44,540.919,538.854,0.0
52098.0,STARLINK-3665,PAYLOAD,2022-06-22 22:00:00,15.08831334,0.0001594,53.2192,55.4135,74.8427,190.8922,-0.00033784,-5.659e-05,0.0,0 STARLINK-3665,1 52098U 22029L   22173.91667824 -.00005659  00000-0 -33784-3 0  9992,2 52098  53.2192  55.4135 0001594  74.8427 190.8922 15.08831334 15971,6917.906999999997,95.438,540.875,538.669,0.0
52098.0,STARLINK-3665,PAYLOAD,2022-06-23 14:00:01,15.08834082,0.0001501,53.2196,52.4193,80.4928,208.4174,0.0015323,0.00024179,0.0,0 STARLINK-3665,1 52098U 22029L   22174.58334491  .00024179  00000-0  15323-2 0  9991,2 52098  53.2196  52.4193 0001501  80.4928 208.4174 15.08834082  1303,6917.898,95.438,540.802,538.725,0.0
52098.0,STARLINK-3665,PAYLOAD,2022-06-23 22:00:00,15.08835222,0.0001541999999999,53.2198,50.9247,72.8249,227.6856,-0.0013546,-0.00021779,0.0,0 STARLINK-3665,1 52098U 22029L   22174.91667824 -.00021779  00000-0 -13546-2 0  9997,2 52098  53.2198  50.9247 0001542  72.8249 227.6856 15.08835222 16127,6917.895,95.438,540.827,538.693,0.0
52098.0,STARLINK-3665,PAYLOAD,2022-06-24 14:00:01,15.08821232,0.0001433,53.2202,47.9306,79.7538,243.9209,0.0023079,0.00036614,0.0,0 STARLINK-3665,1 52098U 22029L   22175.58334491  .00036614  00000-0  23079-2 0  9996,2 52098  53.2202  47.9306 0001433  79.7538 243.9209 15.08821232 16221,6917.938,95.439,540.794,538.811,0.0
52098.0,STARLINK-3665,PAYLOAD,2022-06-24 22:00:01,15.08837143,0.0001476,53.2203,46.4362,71.3614,263.9666,-0.002128,-0.00033993,0.0,0 STARLINK-3665,1 52098U 22029L   22175.91668981 -.00033993  00000-0 -21280-2 0  9998,2 52098  53.2203  46.4362 0001476  71.3614 263.9666 15.08837143  1308,6917.889,95.438,540.775,538.7330000000002,0.0
52098.0,STARLINK-3665,PAYLOAD,2022-06-25 06:00:00,15.08837307,0.0001385999999999,53.2202,44.9396,69.8415,276.9926,-0.0017067,-0.00027345,0.0,0 STARLINK-3665,1 52098U 22029L   22176.25001157 -.00027345  00000-0 -17067-2 0  9994,2 52098  53.2202  44.9396 0001386  69.8415 276.9926 15.08837307 16321,6917.889,95.438,540.712,538.795,0.0
52098.0,STARLINK-3665,PAYLOAD,2022-06-25 14:00:01,15.08813954,0.0001355,53.2206,43.4422,80.2284,278.192,0.0027799,0.000442,0.0,0 STARLINK-3665,1 52098U 22029L   22176.58334491  .00044200  00000-0  27799-2 0  9990,2 52098  53.2206  43.4422 0001355  80.2284 278.1920 15.08813954  1308,6917.96,95.439,540.762,538.888,0.0
52098.0,STARLINK-3665,PAYLOAD,2022-06-25 20:00:01,15.08847615,0.0001393,53.2205,42.3214,74.0797,203.0258,-0.00092497,-0.00014982,0.0,0 STARLINK-3665,1 52098U 22029L   22176.83334491 -.00014982  00000-0 -92497-3 0  9992,2 52098  53.2205  42.3214 0001393  74.0797 203.0258 15.08847615 16416,6917.857,95.437,540.686,538.758,0.0
52098.0,STARLINK-3665,PAYLOAD,2022-06-25 22:00:00,15.08841981,0.0001436,53.2205,41.9478,71.5512,298.4551,-0.00024454,-4.178e-05,0.0,0 STARLINK-3665,1 52098U 22029L   22176.91667824 -.00004178  00000-0 -24454-3 0  9994,2 52098  53.2205  41.9478 0001436  71.5512 298.4551 15.08841981  1304,6917.874,95.437,540.7330000000002,538.746,0.0
52098.0,STARLINK-3665,PAYLOAD,2022-06-26 14:00:01,15.08833894,0.0001517,53.2178,38.954,75.2355,318.0214,0.00034483,5.203e-05,0.0,0 STARLINK-3665,1 52098U 22029L   22177.58335648  .00005203  00000-0  34483-3 0  9995,2 52098  53.2178  38.9540 0001517  75.2355 318.0214 15.08833894  1304,6917.899,95.438,540.813,538.715,0.0
52098.0,STARLINK-3665,PAYLOAD,2022-06-26 20:00:01,15.08845114,0.0001489,53.2203,37.8329,76.4796,235.4102,-0.00091204,-0.00014776,0.0,0 STARLINK-3665,1 52098U 22029L   22177.83334491 -.00014776  00000-0 -91204-3 0  9999,2 52098  53.2203  37.8329 0001489  76.4796 235.4102 15.08845114 16566,6917.865,95.437,540.76,538.7,0.0
52098.0,STARLINK-3665,PAYLOAD,2022-06-26 22:00:00,15.08838349,0.0001529,53.2203,37.4592,74.5749,330.2152,-3.8757e-05,-9.05e-06,0.0,0 STARLINK-3665,1 52098U 22029L   22177.91667824 -.00000905  00000-0 -38757-4 0  9991,2 52098  53.2203  37.4592 0001529  74.5749 330.2152 15.08838349  1303,6917.885,95.438,540.808,538.693,0.0
52098.0,STARLINK-3665,PAYLOAD,2022-06-27 14:00:01,15.08846568,0.0001534,53.22,34.465,84.8991,343.0841,-0.00087738,-0.00014227,0.0,0 STARLINK-3665,1 52098U 22029L   22178.58334491 -.00014227  00000-0 -87738-3 0  9990,2 52098  53.2200  34.4650 0001534  84.8991 343.0841 15.08846568 16687,6917.86,95.437,540.7869999999998,538.664,0.0
52098.0,STARLINK-3665,PAYLOAD,2022-06-27 22:00:00,15.08825644,0.0001645,53.2197,32.9706,77.531,2.0506,0.00018253,2.617e-05,0.0,0 STARLINK-3665,1 52098U 22029L   22178.91667824  .00002617  00000-0  18253-3 0  9990,2 52098  53.2197  32.9706 0001645  77.5310   2.0506 15.08825644  1309,6917.924,95.438,540.927,538.651,0.0
52098.0,STARLINK-3665,PAYLOAD,2022-06-28 14:00:01,15.0882992,0.0001618,53.2195,29.9762,86.8015,15.9359,0.0012599,0.00019815,0.0,0 STARLINK-3665,1 52098U 22029L   22179.58334491  .00019815  00000-0  12599-2 0  9999,2 52098  53.2195  29.9762 0001618  86.8015  15.9359 15.08829920  1300,6917.911,95.438,540.896,538.6569999999998,0.0
52098.0,STARLINK-3665,PAYLOAD,2022-06-28 22:00:00,15.08832611,0.0001656,53.2192,28.4818,78.6545,35.6772,0.00050113,7.695e-05,0.0,0 STARLINK-3665,1 52098U 22029L   22179.91667824  .00007695  00000-0  50113-3 0  9993,2 52098  53.2192  28.4818 0001656  78.6545  35.6772 15.08832611 16880,6917.903,95.438,540.914,538.622,0.0
52098.0,STARLINK-3665,PAYLOAD,2022-06-29 14:00:01,15.08846134,0.0001647,53.2192,25.4872,87.0482,50.4668,0.00084324,0.0001315999999999,0.0,0 STARLINK-3665,1 52098U 22029L   22180.58334491  .00013160  00000-0  84324-3 0  9994,2 52098  53.2192  25.4872 0001647  87.0482  50.4668 15.08846134  1306,6917.861999999999,95.437,540.866,538.587,0.0
52098.0,STARLINK-3665,PAYLOAD,2022-06-29 22:00:00,15.08841809,0.0001659,53.2191,23.9928,78.2019,70.9226,0.00066963,0.00010386,0.0,0 STARLINK-3665,1 52098U 22029L   22180.91667824  .00010386  00000-0  66963-3 0  9996,2 52098  53.2191  23.9928 0001659  78.2019  70.9226 15.08841809  1302,6917.875,95.437,540.888,538.592,0.0
